OBJECT_NAME,OBJECT_ID,EPOCH,MEAN_MOTION,ECCENTRICITY,INCLINATION,RA_OF_ASC_NODE,ARG_OF_PERICENTER,MEAN_ANOMALY,EPHEMERIS_TYPE,CLASSIFICATION_TYPE,NORAD_CAT_ID,ELEMENT_SET_NO,REV_AT_EPOCH,BSTAR,MEAN_MOTION_DOT,MEAN_MOTION_DDOT
STARLINK-37922,2026-157AE,2026-07-18T14:00:01.999872,15.85030159,.000134,53.1584,278.4210,64.8118,94.3503,0,U,69971,999,270,-.10765189E-1,-.2207147E-1,0
CHUANG XIN 26 (CX-26),2026-158A,2026-07-18T15:11:57.155424,14.25123885,.00049141,49.9834,265.9089,311.3503,48.6987,0,U,69972,999,119,.56358532E-4,-.27E-6,0
STARLINK-38024,2026-159A,2026-07-18T14:00:01.999872,15.85793892,.00017641,97.2857,38.4417,75.4879,79.7015,0,U,69975,999,239,-.83796021E-2,-.1754993E-1,0
STARLINK-37993,2026-159B,2026-07-18T14:00:01.999872,15.86063825,.00017675,97.2855,38.4426,72.5642,85.4389,0,U,69976,999,239,-.81521088E-2,-.1733448E-1,0
STARLINK-37995,2026-159C,2026-07-18T14:00:01.999872,15.86316083,.00018082,97.2855,38.4441,71.8967,88.9347,0,U,69977,999,239,-.79532987E-2,-.1715113E-1,0
STARLINK-38057,2026-159D,2026-07-18T14:00:01.999872,15.86550955,.00017502,97.2855,38.4448,76.1141,87.6000,0,U,69978,999,239,-.77975127E-2,-.1702843E-1,0
STARLINK-38063,2026-159E,2026-07-18T14:00:01.999872,15.86773463,.00018462,97.2857,38.4463,73.6661,92.9318,0,U,69979,999,239,-.7643099E-2,-.1689622E-1,0
STARLINK-38093,2026-159F,2026-07-18T14:00:01.999872,15.86992616,.00016997,97.2857,38.4473,77.8606,91.6138,0,U,69980,999,239,-.75280495E-2,-.1683089E-1,0
STARLINK-38050,2026-159G,2026-07-18T14:00:01.999872,15.87209779,.000173,97.2857,38.4486,72.7568,99.4647,0,U,69981,999,239,-.73558429E-2,-.1665049E-1,0
STARLINK-38065,2026-159H,2026-07-18T14:00:01.999872,15.87421097,.00016385,97.2859,38.4499,79.5111,95.4841,0,U,69982,999,239,-.7227737E-2,-.1654686E-1,0
STARLINK-38077,2026-159J,2026-07-18T14:00:01.999872,15.87628791,.00016341,97.2860,38.4510,79.1808,98.5385,0,U,69983,999,239,-.71017419E-2,-.1644207E-1,0
STARLINK-38068,2026-159K,2026-07-18T14:00:01.999872,15.87842217,.00017301,97.2858,38.4525,73.7885,106.4734,0,U,69984,999,239,-.69497654E-2,-.1628542E-1,0
STARLINK-38089,2026-159L,2026-07-18T14:00:01.999872,15.88035731,.0001603,97.2860,38.4538,78.9796,104.0034,0,U,69985,999,239,-.68270695E-2,-.1616819E-1,0
STARLINK-38073,2026-159M,2026-07-18T14:00:01.999872,15.88235590,.00016174,97.2860,38.4547,78.4884,107.0819,0,U,69986,999,239,-.6717741E-2,-.1608122E-1,0
STARLINK-38099,2026-159N,2026-07-18T14:00:01.999872,15.88432792,.00017376,97.2861,38.4556,74.4726,113.5923,0,U,69987,999,239,-.65833291E-2,-.1593697E-1,0
STARLINK-38064,2026-159P,2026-07-18T14:00:01.999872,15.88814293,.00016084,97.2862,38.4575,75.7454,117.3897,0,U,69988,999,239,-.63924867E-2,-.1545924E-1,0
STARLINK-38080,2026-159Q,2026-07-18T14:00:01.999872,15.88624557,.000169,97.2860,38.4567,73.4851,117.1522,0,U,69989,999,239,-.6496589E-2,-.1588552E-1,0
STARLINK-38070,2026-159R,2026-07-18T14:00:01.999872,15.88994587,.00015921,97.2860,38.4586,75.4920,120.1903,0,U,69990,999,239,-.62875139E-2,-.1536066E-1,0
STARLINK-38042,2026-159S,2026-07-18T14:00:01.999872,15.89179757,.00016188,97.2860,38.4596,75.6003,122.3824,0,U,69991,999,239,-.61622521E-2,-.1521972E-1,0
STARLINK-38071,2026-159T,2026-07-18T14:00:01.999872,15.89366223,.0001546,97.2862,38.4607,74.9493,125.3567,0,U,69992,999,239,-.60731502E-2,-.1735923E-1,.81494659E-3
STARLINK-38082,2026-159U,2026-07-18T14:00:01.999872,15.89538701,.00015831,97.2863,38.4615,75.3343,127.3062,0,U,69993,999,239,-.59501725E-2,-.1715711E-1,.79874489E-3
STARLINK-38090,2026-159V,2026-07-18T14:00:01.999872,15.89719529,.00015653,97.2864,38.4626,75.2441,129.7384,0,U,69994,999,239,-.58932292E-2,-.1714726E-1,.79930172E-3
STARLINK-38084,2026-159W,2026-07-18T14:00:01.999872,15.89880879,.00015603,97.2865,38.4636,73.7278,133.7038,0,U,69995,999,239,-.5789077E-2,-.1698275E-1,.78635672E-3
STARLINK-38085,2026-159X,2026-07-18T14:00:01.999872,15.90054375,.00015763,97.2866,38.4647,74.2643,135.3621,0,U,69996,999,239,-.57071999E-2,-.1689002E-1,.77972599E-3
STARLINK-38091,2026-159Y,2026-07-18T14:00:01.999872,15.90220621,.00015184,97.2866,38.4656,73.0156,138.9831,0,U,69997,999,239,-.56456748E-2,-.1684848E-1,.77743606E-3
STARLINK-38086,2026-159Z,2026-07-18T14:00:01.999872,15.90380364,.00015244,97.2866,38.4666,72.4972,141.7624,0,U,69998,999,239,-.55464775E-2,-.1668798E-1,.76494366E-3
