STARLINK-37922          
1 69971U 26157AE  26199.58335648 -.02207147  00000+0 -10765-1 0  9996
2 69971  53.1584 278.4210 0001340  64.8118  94.3503 15.85030159  2700
CHUANG XIN 26 (CX-26)   
1 69972U 26158A   26199.63330041 -.00000027  00000+0  56359-4 0  9993
2 69972  49.9834 265.9089 0004914 311.3503  48.6987 14.25123885  1197
STARLINK-38024          
1 69975U 26159A   26199.58335648 -.01754993  00000+0 -83796-2 0  9992
2 69975  97.2857  38.4417 0001764  75.4879  79.7015 15.85793892  2391
STARLINK-37993          
1 69976U 26159B   26199.58335648 -.01733448  00000+0 -81521-2 0  9999
2 69976  97.2855  38.4426 0001767  72.5642  85.4389 15.86063825  2394
STARLINK-37995          
1 69977U 26159C   26199.58335648 -.01715113  00000+0 -79533-2 0  9999
2 69977  97.2855  38.4441 0001808  71.8967  88.9347 15.86316083  2399
STARLINK-38057          
1 69978U 26159D   26199.58335648 -.01702843  00000+0 -77975-2 0  9994
2 69978  97.2855  38.4448 0001750  76.1141  87.6000 15.86550955  2395
STARLINK-38063          
1 69979U 26159E   26199.58335648 -.01689622  00000+0 -76431-2 0  9990
2 69979  97.2857  38.4463 0001846  73.6661  92.9318 15.86773463  2392
STARLINK-38093          
1 69980U 26159F   26199.58335648 -.01683089  00000+0 -75280-2 0  9994
2 69980  97.2857  38.4473 0001699  77.8606  91.6138 15.86992616  2395
STARLINK-38050          
1 69981U 26159G   26199.58335648 -.01665049  00000+0 -73558-2 0  9997
2 69981  97.2857  38.4486 0001730  72.7568  99.4647 15.87209779  2390
STARLINK-38065          
1 69982U 26159H   26199.58335648 -.01654686  00000+0 -72277-2 0  9990
2 69982  97.2859  38.4499 0001638  79.5111  95.4841 15.87421097  2394
STARLINK-38077          
1 69983U 26159J   26199.58335648 -.01644207  00000+0 -71017-2 0  9990
2 69983  97.2860  38.4510 0001634  79.1808  98.5385 15.87628791  2393
STARLINK-38068          
1 69984U 26159K   26199.58335648 -.01628542  00000+0 -69498-2 0  9995
2 69984  97.2858  38.4525 0001730  73.7885 106.4734 15.87842217  2397
STARLINK-38089          
1 69985U 26159L   26199.58335648 -.01616819  00000+0 -68271-2 0  9998
2 69985  97.2860  38.4538 0001603  78.9796 104.0034 15.88035731  2395
STARLINK-38073          
1 69986U 26159M   26199.58335648 -.01608122  00000+0 -67177-2 0  9991
2 69986  97.2860  38.4547 0001617  78.4884 107.0819 15.88235590  2393
STARLINK-38099          
1 69987U 26159N   26199.58335648 -.01593697  00000+0 -65833-2 0  9999
2 69987  97.2861  38.4556 0001737  74.4726 113.5923 15.88432792  2390
STARLINK-38064          
1 69988U 26159P   26199.58335648 -.01545924  00000+0 -63925-2 0  9990
2 69988  97.2862  38.4575 0001608  75.7454 117.3897 15.88814293  2394
STARLINK-38080          
1 69989U 26159Q   26199.58335648 -.01588552  00000+0 -64966-2 0  9991
2 69989  97.2860  38.4567 0001690  73.4851 117.1522 15.88624557  2396
STARLINK-38070          
1 69990U 26159R   26199.58335648 -.01536066  00000+0 -62875-2 0  9993
2 69990  97.2860  38.4586 0001592  75.4920 120.1903 15.88994587  2399
STARLINK-38042          
1 69991U 26159S   26199.58335648 -.01521972  00000+0 -61623-2 0  9994
2 69991  97.2860  38.4596 0001618  75.6003 122.3824 15.89179757  2395
STARLINK-38071          
1 69992U 26159T   26199.58335648 -.01735923  81495-3 -60732-2 0  9999
2 69992  97.2862  38.4607 0001546  74.9493 125.3567 15.89366223  2399
STARLINK-38082          
1 69993U 26159U   26199.58335648 -.01715711  79874-3 -59502-2 0  9994
2 69993  97.2863  38.4615 0001583  75.3343 127.3062 15.89538701  2394
STARLINK-38090          
1 69994U 26159V   26199.58335648 -.01714726  79930-3 -58932-2 0  9999
2 69994  97.2864  38.4626 0001565  75.2441 129.7384 15.89719529  2398
STARLINK-38084          
1 69995U 26159W   26199.58335648 -.01698275  78636-3 -57891-2 0  9995
2 69995  97.2865  38.4636 0001560  73.7278 133.7038 15.89880879  2395
STARLINK-38085          
1 69996U 26159X   26199.58335648 -.01689002  77973-3 -57072-2 0  9998
2 69996  97.2866  38.4647 0001576  74.2643 135.3621 15.90054375  2390
STARLINK-38091          
1 69997U 26159Y   26199.58335648 -.01684848  77744-3 -56457-2 0  9994
2 69997  97.2866  38.4656 0001518  73.0156 138.9831 15.90220621  2394
STARLINK-38086          
1 69998U 26159Z   26199.58335648 -.01668798  76494-3 -55465-2 0  9990
2 69998  97.2866  38.4666 0001524  72.4972 141.7624 15.90380364  2395
